INTELSAT 902 (IS-902)   
1 26900U 01039A   26194.10279953 -.00000291  00000+0  00000+0 0  9999
2 26900   6.1801  71.4647 0004427  37.8102 168.6068  1.00270527 90954
INTELSAT 904 (IS-904)   
1 27380U 02007A   26193.98441971 -.00000233  00000+0  00000+0 0  9990
2 27380   6.9819  68.8712 0005373  24.1748 160.7451  1.00271153 52024
DIRECTV 5 (TEMPO 1)     
1 27426U 02023A   26194.23972566 -.00000064  00000+0  00000+0 0  9999
2 27426   4.9418  74.9842 0003029  43.7713 148.5519  1.00271113 88388
INTELSAT 905 (IS-905)   
1 27438U 02027A   26194.22973992  .00000085  00000+0  00000+0 0  9991
2 27438   6.8165  69.4825 0003453  44.6612 122.4630  1.00271272 51628
GALAXY 3C (G-3C)        
1 27445U 02030A   26194.13725292 -.00000158  00000+0  00000+0 0  9993
2 27445   3.7981  77.6387 0001495  36.4860 131.4738  1.00270623 46756
INTELSAT 906 (IS-906)   
1 27513U 02041A   26194.14602728  .00000005  00000+0  00000+0 0  9990
2 27513   5.8661  72.6011 0003881  22.4054 312.7310  1.00272727 87280
GALAXY 13 (HORIZONS-1)  
1 27954U 03044A   26194.18457721  .00000129  00000+0  00000+0 0  9995
2 27954   1.4843  83.5332 0002161  26.2199  97.7457  1.00270387 46830
INTELSAT 10-02          
1 28358U 04022A   26193.99046975 -.00000012  00000+0  00000+0 0  9996
2 28358   0.0534 251.1781 0000516 344.4139  50.8437  1.00271565 80816
DIRECTV 8               
1 28659U 05019A   26194.19389486 -.00000001  00000+0  00000+0 0  9995
2 28659   0.0136 336.6178 0003029 150.7355 114.4679  1.00271183 77331
GALAXY 28 (G-28)        
1 28702U 05022A   26194.12791384 -.00000206  00000+0  00000+0 0  9992
2 28702   3.3632  78.6147 0002312  31.8600 199.4733  1.00270707 52239
GALAXY 16 (G-16)        
1 29236U 06023A   26193.82840095 -.00000127  00000+0  00000+0 0  9999
2 29236   0.0377 111.3355 0002438  11.0191   7.5822  1.00271154 73230
DIRECTV 9S              
1 29494U 06043A   26194.20056456 -.00000118  00000+0  00000+0 0  9990
2 29494   2.4854  80.5889 0004988  33.4030 148.0893  1.00270976 51644
GALAXY 17 (G-17)        
1 31307U 07016B   26194.20642663 -.00000211  00000+0  00000+0 0  9992
2 31307   3.0350  79.5724 0003551  34.4016 166.3960  1.00270256 70060
INTELSAT 11 (IS-11)     
1 32253U 07044B   26194.17197610 -.00000115  00000+0  00000+0 0  9990
2 32253   3.6306  78.3535 0004113 100.6767 185.4146  0.99051540 68705
HORIZONS-2              
1 32388U 07063B   26194.21040727 -.00000258  00000+0  00000+0 0  9999
2 32388   2.6667  80.3066 0003530  19.0126 193.7140  1.00269810 68079
DIRECTV 11              
1 32729U 08013A   26194.04237419 -.00000127  00000+0  00000+0 0  9996
2 32729   0.0111 275.1763 0000175 318.2318 333.5856  1.00271885 45855
GALAXY 18 (G-18)        
1 32951U 08024A   26194.19255734  .00000023  00000+0  00000+0 0  9995
2 32951   0.0044 110.0610 0002801  15.6797 111.6473  1.00270868 46112
GALAXY 19 (G-19)        
1 33376U 08045A   26193.90020580 -.00000140  00000+0  00000+0 0  9998
2 33376   0.0537 238.0715 0002327 244.2537  35.5304  1.00272027 65165
FM-5                    
1 35493U 09034A   26193.90237249 -.00000201  00000+0  00000+0 0  9999
2 35493   0.0416 268.2075 0000669  72.2071 189.0649  1.00271288 46902
INTELSAT 14 (IS-14)     
1 36097U 09064A   26194.12436051 -.00000276  00000+0  00000+0 0  9992
2 36097   0.0155  42.2389 0002221  77.1990 171.3472  1.00270601 60868
INTELSAT 15 (IS-15)     
1 36106U 09067A   26194.07885744 -.00000187  00000+0  00000+0 0  9998
2 36106   0.0181  63.3706 0002086  57.6509 283.4798  1.00270942 41484
DIRECTV 12              
1 36131U 09075A   26193.89907913 -.00000104  00000+0  00000+0 0  9996
2 36131   0.0059 118.1538 0000376 110.5275 283.0374  1.00271042 46817
INTELSAT 16 (IS-16)     
1 36397U 10006A   26194.21507633 -.00000247  00000+0  00000+0 0  9996
2 36397   0.0081  31.6124 0002284 105.2011 155.5041  1.00270525 59919
XM-5                    
1 37185U 10053A   26194.11046660 -.00000025  00000+0  00000+0 0  9995
2 37185   0.0652 265.2109 0001740 322.2287 348.1238  1.00270919 57743
INTELSAT 17 (IS-17)     
1 37238U 10065B   26194.14637396 -.00000003  00000+0  00000+0 0  9998
2 37238   0.0144 200.5713 0002523 279.1013 290.0437  1.00269859 53505
INTELSAT 28 (IS-28)     
1 37392U 11016A   26194.12696051 -.00000229  00000+0  00000+0 0  9997
2 37392   1.8708  82.3004 0003679  39.6248 183.0694  1.00271450 53542
INTELSAT 18 (IS-18)     
1 37834U 11056A   26194.09757755  .00000051  00000+0  00000+0 0  9999
2 37834   0.0149 317.8546 0001643 166.0971  22.1509  1.00269916 54078
INTELSAT 22 (IS-22)     
1 38098U 12011A   26194.14758728  .00000000  00000+0  00000+0 0  9995
2 38098   0.0433  72.9648 0001965  61.2703 282.0176  1.00271280  7448
INTELSAT 19 (IS-19)     
1 38356U 12030A   26194.09489087 -.00000059  00000+0  00000+0 0  9991
2 38356   0.0120  58.0489 0003060  67.3891   5.6958  1.00271181 50714
INTELSAT 20 (IS-20)     
1 38740U 12043A   26194.14680728 -.00000027  00000+0  00000+0 0  9998
2 38740   0.0122  63.4914 0001305 108.1352 240.7506  1.00272711 51006
INTELSAT 21 (IS-21)     
1 38749U 12045A   26194.12176050 -.00000287  00000+0  00000+0 0  9993
2 38749   0.0180  36.3687 0001702  85.8183 154.6640  1.00275983 50789
